NORAD_CAT_ID,OBJECT_NAME,OBJECT_TYPE,EPOCH,MEAN_MOTION,ECCENTRICITY,INCLINATION,RA_OF_ASC_NODE,ARG_OF_PERICENTER,MEAN_ANOMALY,BSTAR,MEAN_MOTION_DOT,MEAN_MOTION_DDOT,TLE_LINE0,TLE_LINE1,TLE_LINE2,SEMIMAJOR_AXIS,PERIOD,APOGEE,PERIGEE,DECAYED
52092.0,STARLINK-3716,PAYLOAD,2024-07-20 09:32:32,15.08845487,0.0001219,53.2155,250.4722,91.0897,269.0234,5.5707e-05,5.99e-06,0.0,0 STARLINK-3716,1 52092U 22029E   24202.39759949  .00000599  00000-0  55707-4 0  9999,2 52092  53.2155 250.4722 0001219  91.0897 269.0234 15.08845487130482,6917.864,95.437,540.572,538.885,0.0
52092.0,STARLINK-3716,PAYLOAD,2024-07-20 20:40:14,15.08849772,0.0001257,53.2151,248.3908,87.4659,272.6477,1.0952e-05,-1.14e-06,0.0,0 STARLINK-3716,1 52092U 22029E   24202.86127639 -.00000114  00000-0  10952-4 0  9993,2 52092  53.2151 248.3908 0001257  87.4659 272.6477 15.08849772130555,6917.851,95.437,540.585,538.846,0.0
52092.0,STARLINK-3716,PAYLOAD,2024-07-21 09:23:20,15.0883627,0.000122,53.2146,246.0112,101.6695,258.4434,-1.4721e-05,-5.22e-06,0.0,0 STARLINK-3716,1 52092U 22029E   24203.39120602 -.00000522  00000-0 -14721-4 0  9997,2 52092  53.2146 246.0112 0001220 101.6695 258.4434 15.08836270130633,6917.892,95.438,540.601,538.913,0.0
52092.0,STARLINK-3716,PAYLOAD,2024-07-22 12:24:53,15.08842436,0.0001527,53.2158,240.9551,100.1772,259.9392,4.6841e-05,4.58e-06,0.0,0 STARLINK-3716,1 52092U 22029E   24204.51728180  .00000458  00000-0  46841-4 0  9991,2 52092  53.2158 240.9551 0001527 100.1772 259.9392 15.08842436130805,6917.873,95.437,540.794,538.682,0.0
52092.0,STARLINK-3716,PAYLOAD,2024-07-23 12:15:40,15.08843126,0.0001433,53.2153,236.4947,86.7766,273.339,0.00012185,1.652e-05,0.0,0 STARLINK-3716,1 52092U 22029E   24205.51088064  .00001652  00000-0  12185-3 0  9992,2 52092  53.2153 236.4947 0001433  86.7766 273.3390 15.08843126130958,6917.871,95.437,540.727,538.745,0.0
52092.0,STARLINK-3716,PAYLOAD,2024-07-24 05:44:55,15.08832819,0.0001355,53.2161,233.223,94.9076,265.2071,-1.6027e-05,-5.43e-06,0.0,0 STARLINK-3716,1 52092U 22029E   24206.23953310 -.00000543  00000-0 -16027-4 0  9997,2 52092  53.2161 233.2230 0001355  94.9076 265.2071 15.08832819131061,6917.902,95.438,540.705,538.83,0.0
52092.0,STARLINK-3716,PAYLOAD,2024-07-24 08:55:42,15.08830061,0.0001358,53.2159,232.6272,87.2054,272.9093,-4.0194e-05,-9.27e-06,0.0,0 STARLINK-3716,1 52092U 22029E   24206.37201620 -.00000927  00000-0 -40194-4 0  9990,2 52092  53.2159 232.6272 0001358  87.2054 272.9093 15.08830061131089,6917.911,95.438,540.715,538.836,0.0
52092.0,STARLINK-3716,PAYLOAD,2024-07-25 05:35:42,15.08839393,0.0001232,53.2152,228.7586,88.2815,271.8318,1.8316e-05,4e-08,0.0,0 STARLINK-3716,1 52092U 22029E   24207.23313090  .00000004  00000-0  18316-4 0  9996,2 52092  53.2152 228.7586 0001232  88.2815 271.8318 15.08839393131213,6917.882,95.438,540.6,538.895,0.0
52092.0,STARLINK-3716,PAYLOAD,2024-07-25 07:11:05,15.08839657,0.0001248,53.2152,228.4619,91.3442,268.7693,2.5581e-05,1.19e-06,0.0,0 STARLINK-3716,1 52092U 22029E   24207.29937061  .00000119  00000-0  25581-4 0  9991,2 52092  53.2152 228.4619 0001248  91.3442 268.7693 15.08839657131220,6917.881,95.438,540.61,538.883,0.0
52092.0,STARLINK-3716,PAYLOAD,2024-07-26 10:12:38,15.08844495,0.0001222,53.2157,223.4116,86.073,274.0402,0.00019256,2.778e-05,0.0,0 STARLINK-3716,1 52092U 22029E   24208.42544403  .00002778  00000-0  19256-3 0  9995,2 52092  53.2157 223.4116 0001222  86.0730 274.0402 15.08844495131397,6917.867,95.437,540.577,538.886,0.0
52092.0,STARLINK-3716,PAYLOAD,2024-07-27 05:17:16,15.08842139,0.0001278,53.2159,219.8436,88.2535,271.8604,4.2256e-05,3.85e-06,0.0,0 STARLINK-3716,1 52092U 22029E   24209.22032870  .00000385  00000-0  42256-4 0  9993,2 52092  53.2159 219.8436 0001278  88.2535 271.8604 15.08842139131517,6917.874,95.437,540.623,538.855,0.0
52092.0,STARLINK-3716,PAYLOAD,2024-07-27 10:03:25,15.08846262,0.0001301,53.2158,218.9515,88.6026,271.5115,7.2561e-05,8.67e-06,0.0,0 STARLINK-3716,1 52092U 22029E   24209.41904458  .00000867  00000-0  72561-4 0  9991,2 52092  53.2158 218.9515 0001301  88.6026 271.5115 15.08846262131548,6917.861,95.437,540.626,538.826,0.0
52092.0,STARLINK-3716,PAYLOAD,2024-07-28 09:54:12,15.08840791,0.0001544,53.2168,214.4876,102.0969,258.0196,-1.2594e-05,-4.88e-06,0.0,0 STARLINK-3716,1 52092U 22029E   24210.41264808 -.00000488  00000-0 -12594-4 0  9992,2 52092  53.2168 214.4876 0001544 102.0969 258.0196 15.08840791131692,6917.878,95.438,540.811,538.675,0.0
52092.0,STARLINK-3716,PAYLOAD,2024-07-29 04:58:45,15.08902232,0.0001867,53.2154,210.9185,117.4236,242.6946,0.00053702,8.283e-05,0.0,0 STARLINK-3716,1 52092U 22029E   24211.20747136  .00008283  00000-0  53702-3 0  9994,2 52092  53.2154 210.9185 0001867 117.4236 242.6946 15.08902232131811,6917.69,95.434,540.847,538.264,0.0
52092.0,STARLINK-3716,PAYLOAD,2024-07-29 11:20:20,15.08860241,0.0001771,53.2159,209.7265,82.5466,277.5728,0.00016113,2.279e-05,0.0,0 STARLINK-3716,1 52092U 22029E   24211.47246184  .00002279  00000-0  16113-3 0  9994,2 52092  53.2159 209.7265 0001771  82.5466 277.5728 15.08860241131854,6917.819,95.436,540.909,538.458,0.0
52092.0,STARLINK-3716,PAYLOAD,2024-07-30 04:49:37,15.08827672,0.0001275,53.2154,206.4656,74.4426,285.6707,-0.00012602,-2.292e-05,0.0,0 STARLINK-3716,1 52092U 22029E   24212.20113403 -.00002292  00000-0 -12602-3 0  9999,2 52092  53.2154 206.4656 0001275  74.4426 285.6707 15.08827672131962,6917.918,95.438,540.665,538.901,0.0
52092.0,STARLINK-3716,PAYLOAD,2024-07-30 09:35:47,15.08828997,0.0001275,53.2156,205.5695,85.3815,274.7323,-8.4978e-05,-1.64e-05,0.0,0 STARLINK-3716,1 52092U 22029E   24212.39985223 -.00001640  00000-0 -84978-4 0  9998,2 52092  53.2156 205.5695 0001275  85.3815 274.7323 15.08828997131997,6917.914,95.438,540.661,538.897,0.0
52092.0,STARLINK-3716,PAYLOAD,2024-07-31 06:15:46,15.08870732,0.0001347,53.2157,201.7036,99.7703,260.3441,-0.00040263,-6.695e-05,0.0,0 STARLINK-3716,1 52092U 22029E   24213.26095810 -.00006695  00000-0 -40263-3 0  9992,2 52092  53.2157 201.7036 0001347  99.7703 260.3441 15.08870732132122,6917.786,95.436,540.583,538.72,0.0
52092.0,STARLINK-3716,PAYLOAD,2024-07-31 15:48:05,15.08860977,0.0001599,53.2159,199.9203,75.3531,284.7638,-0.00038387,-6.396e-05,0.0,0 STARLINK-3716,1 52092U 22029E   24213.65839986 -.00006396  00000-0 -38387-3 0  9997,2 52092  53.2159 199.9203 0001599  75.3531 284.7638 15.08860977132180,6917.816,95.436,540.787,538.575,0.0
52092.0,STARLINK-3716,PAYLOAD,2024-08-01 06:06:34,15.08834328,0.0001734,53.2166,197.2432,57.8745,302.2416,0.000191,2.753e-05,0.0,0 STARLINK-3716,1 52092U 22029E   24214.25456139  .00002753  00000-0  19100-3 0  9992,2 52092  53.2166 197.2432 0001734  57.8745 302.2416 15.08834328132277,6917.898,95.438,540.962,538.563,0.0
52092.0,STARLINK-3716,PAYLOAD,2024-08-01 15:38:53,15.08826227,0.0001338,53.2164,195.4599,94.7923,265.3222,4.5054e-05,4.29e-06,0.0,0 STARLINK-3716,1 52092U 22029E   24214.65201174  .00000429  00000-0  45054-4 0  9999,2 52092  53.2164 195.4599 0001338  94.7923 265.3222 15.08826227132337,6917.922,95.438,540.713,538.862,0.0
52092.0,STARLINK-3716,PAYLOAD,2024-08-02 09:08:08,15.08830837,0.0001441,53.2168,192.1873,87.9057,272.21,-1.1749e-05,-4.75e-06,0.0,0 STARLINK-3716,1 52092U 22029E   24215.38065557 -.00000475  00000-0 -11749-4 0  9990,2 52092  53.2168 192.1873 0001441  87.9057 272.2100 15.08830837132443,6917.908,95.438,540.77,538.777,0.0
52092.0,STARLINK-3716,PAYLOAD,2024-08-02 21:51:13,15.0885317,0.0001881,53.2178,189.8081,81.7812,278.3394,-0.00033165,-5.565e-05,0.0,0 STARLINK-3716,1 52092U 22029E   24215.91057347 -.00005565  00000-0 -33165-3 0  9997,2 52092  53.2178 189.8081 0001881  81.7812 278.3394 15.08853170132523,6917.84,95.437,541.006,538.404,0.0
52092.0,STARLINK-3716,PAYLOAD,2024-08-03 07:23:31,15.088527,0.0001647,53.2171,188.0242,84.5872,275.5308,-0.00022357,-3.846e-05,0.0,0 STARLINK-3716,1 52092U 22029E   24216.30800829 -.00003846  00000-0 -22357-3 0  9993,2 52092  53.2171 188.0242 0001647  84.5872 275.5308 15.08852700132581,6917.842,95.437,540.846,538.567,0.0
52092.0,STARLINK-3716,PAYLOAD,2024-08-03 21:42:01,15.08826925,0.0001513,53.2167,185.3479,86.0004,274.1161,0.000162,2.29e-05,0.0,0 STARLINK-3716,1 52092U 22029E   24216.90417991  .00002290  00000-0  16200-3 0  9993,2 52092  53.2167 185.3479 0001513  86.0004 274.1161 15.08826925132676,6917.92,95.438,540.832,538.739,0.0
52092.0,STARLINK-3716,PAYLOAD,2024-08-04 05:38:56,15.08839288,0.0001281,53.2155,183.8615,87.0548,273.059,0.00019634,2.838e-05,0.0,0 STARLINK-3716,1 52092U 22029E   24217.23537439  .00002838  00000-0  19634-3 0  9992,2 52092  53.2155 183.8615 0001281  87.0548 273.0590 15.08839288132720,6917.883,95.438,540.634,538.861,0.0
52092.0,STARLINK-3716,PAYLOAD,2024-08-04 21:32:47,15.08843399,0.0001464,53.2154,180.8876,91.4168,268.6992,0.00027606,4.109e-05,0.0,0 STARLINK-3716,1 52092U 22029E   24217.89777766  .00004109  00000-0  27606-3 0  9994,2 52092  53.2154 180.8876 0001464  91.4168 268.6992 15.08843399132820,6917.87,95.437,540.748,538.722,0.0
52092.0,STARLINK-3716,PAYLOAD,2024-08-05 15:02:03,15.08830519,0.0001893,53.215,177.6175,78.6659,281.4546,-7.4071e-05,-1.467e-05,0.0,0 STARLINK-3716,1 52092U 22029E   24218.62642372 -.00001467  00000-0 -74071-4 0  9995,2 52092  53.2150 177.6175 0001893  78.6659 281.4546 15.08830519132930,6917.909,95.438,541.084,538.465,0.0
52092.0,STARLINK-3716,PAYLOAD,2024-08-06 03:45:03,15.09011098,0.0001087,53.2155,175.2357,116.2694,243.8409,0.0043009,0.00069157,0.0,0 STARLINK-3716,1 52092U 22029E   24219.15629110  .00069157  00000-0  43009-2 0  9992,2 52092  53.2155 175.2357 0001087 116.2694 243.8409 15.09011098133018,6917.357,95.427,539.974,538.471,0.0
52092.0,STARLINK-3716,PAYLOAD,2024-08-06 08:31:16,15.08868656,0.0004152,53.2157,174.3443,150.2827,209.8402,0.00076781,0.00011963,0.0,0 STARLINK-3716,1 52092U 22029E   24219.35505146  .00011963  00000-0  76781-3 0  9992,2 52092  53.2157 174.3443 0004152 150.2827 209.8402 15.08868656133045,6917.793,95.436,542.53,536.786,0.0
